{"fetched_at":"2026-07-06T08:47:06.888Z","source":"https://celestrak.org/NORAD/elements/gp.php?NAME=JILIN&FORMAT=JSON","constellation":"jilin-1-kuanfu","records":[{"OBJECT_NAME":"JILIN-1 KUANFU 01","OBJECT_ID":"2020-003A","EPOCH":"2026-07-05T08:48:46.835136","CLASSIFICATION_TYPE":"U","MEAN_MOTION":15.10829742,"ECCENTRICITY":0.0008513,"INCLINATION":97.5016,"RA_OF_ASC_NODE":259.9683,"ARG_OF_PERICENTER":234.026,"MEAN_ANOMALY":126.0181,"EPHEMERIS_TYPE":0,"NORAD_CAT_ID":45016,"ELEMENT_SET_NO":999,"REV_AT_EPOCH":35807,"BSTAR":0.00029603,"MEAN_MOTION_DOT":0.00004861,"MEAN_MOTION_DDOT":0},{"OBJECT_NAME":"JILIN-1 KUANFU-01B","OBJECT_ID":"2021-061A","EPOCH":"2026-07-05T14:20:59.023968","CLASSIFICATION_TYPE":"U","MEAN_MOTION":15.09783731,"ECCENTRICITY":0.00069111,"INCLINATION":97.5204,"RA_OF_ASC_NODE":262.4514,"ARG_OF_PERICENTER":12.9478,"MEAN_ANOMALY":347.1927,"EPHEMERIS_TYPE":0,"NORAD_CAT_ID":49003,"ELEMENT_SET_NO":999,"REV_AT_EPOCH":27612,"BSTAR":0.00044508016,"MEAN_MOTION_DOT":0.00007132,"MEAN_MOTION_DDOT":0},{"OBJECT_NAME":"JILIN-1 KUANFU 01C","OBJECT_ID":"2022-048A","EPOCH":"2026-07-05T09:21:00.053280","CLASSIFICATION_TYPE":"U","MEAN_MOTION":15.09564735,"ECCENTRICITY":0.0016679,"INCLINATION":97.5245,"RA_OF_ASC_NODE":263.2333,"ARG_OF_PERICENTER":256.1187,"MEAN_ANOMALY":103.8187,"EPHEMERIS_TYPE":0,"NORAD_CAT_ID":52443,"ELEMENT_SET_NO":999,"REV_AT_EPOCH":22994,"BSTAR":0.00023952,"MEAN_MOTION_DOT":0.00003793,"MEAN_MOTION_DDOT":0},{"OBJECT_NAME":"JILIN-1 KUANFU 02A","OBJECT_ID":"2023-127A","EPOCH":"2026-07-05T10:00:03.686112","CLASSIFICATION_TYPE":"U","MEAN_MOTION":15.10758349,"ECCENTRICITY":0.0010037,"INCLINATION":97.5563,"RA_OF_ASC_NODE":280.0045,"ARG_OF_PERICENTER":275.127,"MEAN_ANOMALY":84.8814,"EPHEMERIS_TYPE":0,"NORAD_CAT_ID":57696,"ELEMENT_SET_NO":999,"REV_AT_EPOCH":15838,"BSTAR":0.00044115,"MEAN_MOTION_DOT":0.00007265,"MEAN_MOTION_DDOT":0},{"OBJECT_NAME":"JILIN-01 KUANFU 02B 1","OBJECT_ID":"2024-169A","EPOCH":"2026-07-05T10:03:31.476384","CLASSIFICATION_TYPE":"U","MEAN_MOTION":15.09011614,"ECCENTRICITY":0.0002417,"INCLINATION":97.5569,"RA_OF_ASC_NODE":275.6596,"ARG_OF_PERICENTER":19.6081,"MEAN_ANOMALY":340.524,"EPHEMERIS_TYPE":0,"NORAD_CAT_ID":61189,"ELEMENT_SET_NO":999,"REV_AT_EPOCH":9857,"BSTAR":0.0003236,"MEAN_MOTION_DOT":0.00005055,"MEAN_MOTION_DDOT":0},{"OBJECT_NAME":"JILIN-01 KUANFU 02B 3","OBJECT_ID":"2024-169C","EPOCH":"2026-07-05T09:47:02.850432","CLASSIFICATION_TYPE":"U","MEAN_MOTION":15.09011223,"ECCENTRICITY":0.0012424,"INCLINATION":97.5557,"RA_OF_ASC_NODE":275.4671,"ARG_OF_PERICENTER":242.0809,"MEAN_ANOMALY":117.9162,"EPHEMERIS_TYPE":0,"NORAD_CAT_ID":61191,"ELEMENT_SET_NO":999,"REV_AT_EPOCH":9857,"BSTAR":0.00036786,"MEAN_MOTION_DOT":0.00005765,"MEAN_MOTION_DDOT":0},{"OBJECT_NAME":"JILIN-01 KUANFU 02B 4","OBJECT_ID":"2024-169D","EPOCH":"2026-07-05T09:01:55.051968","CLASSIFICATION_TYPE":"U","MEAN_MOTION":15.08997054,"ECCENTRICITY":0.0013068,"INCLINATION":97.553,"RA_OF_ASC_NODE":274.9676,"ARG_OF_PERICENTER":196.1159,"MEAN_ANOMALY":163.9656,"EPHEMERIS_TYPE":0,"NORAD_CAT_ID":61192,"ELEMENT_SET_NO":999,"REV_AT_EPOCH":9857,"BSTAR":0.00038756,"MEAN_MOTION_DOT":0.00006076,"MEAN_MOTION_DDOT":0},{"OBJECT_NAME":"JILIN-01 KUANFU 02B 5","OBJECT_ID":"2024-169E","EPOCH":"2026-07-05T08:43:33.608352","CLASSIFICATION_TYPE":"U","MEAN_MOTION":15.09030951,"ECCENTRICITY":0.0012224,"INCLINATION":97.5575,"RA_OF_ASC_NODE":275.7454,"ARG_OF_PERICENTER":221.5324,"MEAN_ANOMALY":138.4977,"EPHEMERIS_TYPE":0,"NORAD_CAT_ID":61193,"ELEMENT_SET_NO":999,"REV_AT_EPOCH":9857,"BSTAR":0.00034642,"MEAN_MOTION_DOT":0.00005427,"MEAN_MOTION_DDOT":0},{"OBJECT_NAME":"JILIN-01 KUANFU 02B 6","OBJECT_ID":"2024-169F","EPOCH":"2026-07-05T09:17:13.657632","CLASSIFICATION_TYPE":"U","MEAN_MOTION":15.08992533,"ECCENTRICITY":0.0015037,"INCLINATION":97.5557,"RA_OF_ASC_NODE":275.6638,"ARG_OF_PERICENTER":257.5873,"MEAN_ANOMALY":102.3673,"EPHEMERIS_TYPE":0,"NORAD_CAT_ID":61194,"ELEMENT_SET_NO":999,"REV_AT_EPOCH":9858,"BSTAR":0.00037019,"MEAN_MOTION_DOT":0.00005803,"MEAN_MOTION_DDOT":0}]}
