JILIN-1 KUANFU 01       
1 45016U 20003A   26186.36720874  .00004861  00000+0  29603-3 0  9992
2 45016  97.5016 259.9683 0008512 234.0260 126.0181 15.10829742358072
JILIN-1 KUANFU-01B      
1 49003U 21061A   26186.59790537  .00007132  00000+0  44508-3 0  9990
2 49003  97.5204 262.4514 0006911  12.9478 347.1927 15.09783731276122
JILIN-1 KUANFU 01C      
1 52443U 22048A   26186.38958395  .00003793  00000+0  23952-3 0  9992
2 52443  97.5245 263.2333 0016679 256.1187 103.8187 15.09564735229942
JILIN-1 KUANFU 02A      
1 57696U 23127A   26186.41670934  .00007265  00000+0  44115-3 0  9992
2 57696  97.5563 280.0045 0010037 275.1270  84.8814 15.10758349158385
JILIN-01 KUANFU 02B 1   
1 61189U 24169A   26186.41911431  .00005055  00000+0  32360-3 0  9995
2 61189  97.5569 275.6596 0002417  19.6081 340.5240 15.09011615 98573
JILIN-01 KUANFU 02B 3   
1 61191U 24169C   26186.40767188  .00005765  00000+0  36786-3 0  9999
2 61191  97.5557 275.4671 0012424 242.0809 117.9162 15.09011223 98578
JILIN-01 KUANFU 02B 4   
1 61192U 24169D   26186.37633163  .00006076  00000+0  38756-3 0  9996
2 61192  97.5530 274.9676 0013067 196.1159 163.9656 15.08997054 98573
JILIN-01 KUANFU 02B 5   
1 61193U 24169E   26186.36358343  .00005427  00000+0  34642-3 0  9999
2 61193  97.5575 275.7454 0012223 221.5324 138.4977 15.09030952 98575
JILIN-01 KUANFU 02B 6   
1 61194U 24169F   26186.38696364  .00005803  00000+0  37019-3 0  9999
2 61194  97.5557 275.6638 0015037 257.5873 102.3673 15.08992533 98588
